FM-6                    
1 39360U 13058A   26194.96565503 -.00000021  00000+0  00000+0 0  9991
2 39360   0.0142  33.4803 0001390 144.8411 344.7900  1.00270909 46349
RADUGA-1M 3             
1 39375U 13062A   26197.05476404  .00000139  00000+0  00000+0 0  9995
2 39375   6.0299  71.9841 0001931 274.4879   2.1130  1.00272704 46392
SES-8                   
1 39460U 13071A   26196.86100134 -.00000279  00000+0  00000+0 0  9998
2 39460   0.0548 255.7957 0002651 219.7796 223.0728  1.00269950 44718
INMARSAT 5-F1           
1 39476U 13073A   26197.13971109  .00000017  00000+0  00000+0 0  9995
2 39476   0.0161  49.8892 0000255 256.0803 100.9313  1.00273102 45861
TKSAT-1 (TUPAC KATARI)  
1 39481U 13075A   26197.11004500 -.00000205  00000+0  00000+0 0  9993
2 39481   0.0316 234.7931 0002410 235.5864 135.9775  1.00270344 45890
EXPRESS-AM5             
1 39487U 13077A   26197.15496448 -.00000290  00000+0  00000+0 0  9995
2 39487   0.0253 289.5011 0000182 274.9921 285.3239  1.00272511 46656
GSAT-14                 
1 39498U 14001A   26197.15739199 -.00000087  00000+0  00000+0 0  9992
2 39498   0.0142  77.4816 0001945 133.8195 213.3118  1.00271025 45662
THAICOM 6               
1 39500U 14002A   26197.14291777 -.00000132  00000+0  00000+0 0  9992
2 39500   0.0509 110.1865 0004297  15.4066 298.3280  1.00272707 45747
TDRS 12                 
1 39504U 14004A   26197.09558764 -.00000281  00000+0  00000+0 0  9999
2 39504   4.0061  19.5573 0004322 203.5006  64.4244  1.00272269 44563
ABS-2                   
1 39508U 14006A   26197.14213777  .00000000  00000+0  00000+0 0  9991
2 39508   0.0208  51.0782 0003386  49.9506 319.0449  1.00269738 45569
ATHENA-FIDUS            
1 39509U 14006B   26197.13485772  .00000143  00000+0  00000+0 0  9995
2 39509   0.0263 100.0157 0001324  18.5717 261.7190  1.00272086 45373
TURKSAT 4A              
1 39522U 14007A   26197.13563772  .00000135  00000+0  00000+0 0  9999
2 39522   0.0933 278.1052 0001296 322.4065 144.2976  1.00273847 45254
EXPRESS-AT1             
1 39612U 14010A   26197.14040442 -.00000020  00000+0  00000+0 0  9992
2 39612   0.3300  85.2789 0004414  56.7243 268.5315  1.00309231 45107
EXPRESS-AT2             
1 39613U 14010B   26197.13832441  .00000000  00000+0  00000+0 0  9997
2 39613   0.0187  46.3480 0000198 354.6465 358.7812  1.00270164 44784
AMAZONAS 4A             
1 39616U 14011A   26197.11255832 -.00000263  00000+0  00000+0 0  9994
2 39616   0.0595 192.9038 0004766 305.9373 121.6179  1.00269317 45006
ASTRA 5B                
1 39617U 14011B   26197.13199772  .00000126  00000+0  00000+0 0  9994
2 39617   0.0748 303.0403 0001889 177.9627 243.9533  1.00268546 44958
IRNSS-1B                
1 39635U 14017A   26196.71042329  .00000127  00000+0  00000+0 0  9999
2 39635  28.8748 239.9111 0022284 191.7753 172.7664  1.00275936 45085
LUCH-5V                 
1 39727U 14023A   26196.71838748 -.00000282  00000+0  00000+0 0  9999
2 39727   5.2008  69.4407 0002077  84.8079 132.6532  1.00273438 44645
KAZSAT-3                
1 39728U 14023B   26196.92504106  .00000051  00000+0  00000+0 0  9994
2 39728   0.0108  28.7523 0000174 255.9757  40.5298  1.00270462 42746
EUTELSAT 3B             
1 39773U 14030A   26197.12792435  .00000009  00000+0  00000+0 0  9992
2 39773   0.0610   3.8596 0004143 111.7175 227.5195  1.00271188 44359
ASIASAT 8 (AMOS-7)      
1 40107U 14046A   26195.73441069 -.00000340  00000+0  00000+0 0  9990
2 40107   0.0176  30.3385 0001351  98.4249 173.4815  1.00267643102423
ASIASAT 6               
1 40141U 14052A   26195.58276944 -.00000370  00000+0  00000+0 0  9999
2 40141   0.0173  47.8834 0000722 109.3513 104.9159  1.00270746 43351
OPTUS 10                
1 40146U 14054A   26196.60183630 -.00000158  00000+0  00000+0 0  9993
2 40146   0.0769 308.3732 0001968 168.6021 189.1314  1.00270591 43316
MEASAT-3B               
1 40147U 14054B   26195.29190285 -.00000248  00000+0  00000+0 0  9992
2 40147   0.0418  50.4787 0003344  18.1485  60.0938  1.00269704 43184
HIMAWARI-8              
1 40267U 14060A   26196.94133448 -.00000286  00000+0  00000+0 0  9995
2 40267   0.0175  14.6307 0001103 153.4825 245.2159  1.00271236 43049
IRNSS-1C                
1 40269U 14061A   26196.83150176 -.00000176  00000+0  00000+0 0  9991
2 40269   6.5880  88.3869 0022069   5.5373 222.1370  1.00272233 42973
INTELSAT 30 (IS-30)     
1 40271U 14062A   26196.89471485 -.00000161  00000+0  00000+0 0  9994
2 40271   0.0195  54.0858 0001415 333.0622 133.6241  1.00269522  7083
ARSAT 1                 
1 40272U 14062B   26197.04183160 -.00000270  00000+0  00000+0 0  9994
2 40272   0.0631 272.1851 0001786 199.7543 125.1835  1.00271008 42913
EUTELSAT 53A            
1 40277U 14064A   26197.13789108  .00000087  00000+0  00000+0 0  9990
2 40277   0.0162 343.2828 0001745 219.2320 194.0937  1.00271937 41858
GSAT-16                 
1 40332U 14078A   26195.07090686  .00000000  00000+0  00000+0 0  9999
2 40332   0.0209  41.7088 0007260  51.1336 279.7235  1.00272595 42379
DIRECTV 14              
1 40333U 14078B   26196.51016898 -.00000135  00000+0  00000+0 0  9993
2 40333   0.0110  40.7880 0000690 304.5925  32.3918  1.00267237 42322
YAMAL 401               
1 40345U 14082A   26197.14517111  .00000000  00000+0  00000+0 0  9995
2 40345   0.0174  77.6740 0000420  32.3947 326.1262  1.00269760 42206
