OBJECT_NAME,OBJECT_ID,EPOCH,MEAN_MOTION,ECCENTRICITY,INCLINATION,RA_OF_ASC_NODE,ARG_OF_PERICENTER,MEAN_ANOMALY,EPHEMERIS_TYPE,CLASSIFICATION_TYPE,NORAD_CAT_ID,ELEMENT_SET_NO,REV_AT_EPOCH,BSTAR,MEAN_MOTION_DOT,MEAN_MOTION_DDOT
FM-6,2013-058A,2026-07-13T23:10:32.594592,1.00270909,.00013903,0.0142,33.4803,144.8411,344.7900,0,U,39360,999,4634,0,-.21E-6,0
RADUGA-1M 3,2013-062A,2026-07-16T01:18:51.613056,1.00272704,.0001931,6.0299,71.9841,274.4879,2.1130,0,U,39375,999,4639,0,.139E-5,0
SES-8,2013-071A,2026-07-15T20:39:50.515776,1.00269950,.0002651,0.0548,255.7957,219.7796,223.0728,0,U,39460,999,4471,0,-.279E-5,0
INMARSAT 5-F1,2013-073A,2026-07-16T03:21:11.038176,1.00273102,.0000255,0.0161,49.8892,256.0803,100.9313,0,U,39476,999,4586,0,.17E-6,0
TKSAT-1 (TUPAC KATARI),2013-075A,2026-07-16T02:38:27.888000,1.00270344,.000241,0.0316,234.7931,235.5864,135.9775,0,U,39481,999,4589,0,-.205E-5,0
EXPRESS-AM5,2013-077A,2026-07-16T03:43:08.931072,1.00272511,.0000182,0.0253,289.5011,274.9921,285.3239,0,U,39487,999,4665,0,-.29E-5,0
GSAT-14,2014-001A,2026-07-16T03:46:38.667936,1.00271025,.0001945,0.0142,77.4816,133.8195,213.3118,0,U,39498,999,4566,0,-.87E-6,0
THAICOM 6,2014-002A,2026-07-16T03:25:48.095328,1.00272707,.0004297,0.0509,110.1865,15.4066,298.3280,0,U,39500,999,4574,0,-.132E-5,0
TDRS 12,2014-004A,2026-07-16T02:17:38.772096,1.00272269,.0004322,4.0061,19.5573,203.5006,64.4244,0,U,39504,999,4456,0,-.281E-5,0
ABS-2,2014-006A,2026-07-16T03:24:40.703328,1.00269738,.0003386,0.0208,51.0782,49.9506,319.0449,0,U,39508,999,4556,0,0,0
ATHENA-FIDUS,2014-006B,2026-07-16T03:14:11.707008,1.00272086,.0001324,0.0263,100.0157,18.5717,261.7190,0,U,39509,999,4537,0,.143E-5,0
TURKSAT 4A,2014-007A,2026-07-16T03:15:19.099008,1.00273847,.0001296,0.0933,278.1052,322.4065,144.2976,0,U,39522,999,4525,0,.135E-5,0
EXPRESS-AT1,2014-010A,2026-07-16T03:22:10.941888,1.00309231,.0004414,0.3300,85.2789,56.7243,268.5315,0,U,39612,999,4510,0,-.2E-6,0
EXPRESS-AT2,2014-010B,2026-07-16T03:19:11.229024,1.00270164,.0000198,0.0187,46.3480,354.6465,358.7812,0,U,39613,999,4478,0,0,0
AMAZONAS 4A,2014-011A,2026-07-16T02:42:05.038848,1.00269317,.0004766,0.0595,192.9038,305.9373,121.6179,0,U,39616,999,4500,0,-.263E-5,0
ASTRA 5B,2014-011B,2026-07-16T03:10:04.603008,1.00268546,.0001889,0.0748,303.0403,177.9627,243.9533,0,U,39617,999,4495,0,.126E-5,0
IRNSS-1B,2014-017A,2026-07-15T17:03:00.572256,1.00275936,.00222843,28.8748,239.9111,191.7753,172.7664,0,U,39635,999,4508,0,.127E-5,0
LUCH-5V,2014-023A,2026-07-15T17:14:28.678272,1.00273438,.00020774,5.2008,69.4407,84.8079,132.6532,0,U,39727,999,4464,0,-.282E-5,0
KAZSAT-3,2014-023B,2026-07-15T22:12:03.547584,1.00270462,.0000174,0.0108,28.7523,255.9757,40.5298,0,U,39728,999,4274,0,.51E-6,0
EUTELSAT 3B,2014-030A,2026-07-16T03:04:12.663840,1.00271188,.0004143,0.0610,3.8596,111.7175,227.5195,0,U,39773,999,4435,0,.9E-7,0
ASIASAT 8 (AMOS-7),2014-046A,2026-07-14T17:37:33.083616,1.00267643,.00013512,0.0176,30.3385,98.4249,173.4815,0,U,40107,999,10242,0,-.34E-5,0
ASIASAT 6,2014-052A,2026-07-14T13:59:11.279616,1.00270746,.00007222,0.0173,47.8834,109.3513,104.9159,0,U,40141,999,4335,0,-.37E-5,0
OPTUS 10,2014-054A,2026-07-15T14:26:38.656320,1.00270591,.0001968,0.0769,308.3732,168.6021,189.1314,0,U,40146,999,4331,0,-.158E-5,0
MEASAT-3B,2014-054B,2026-07-14T07:00:20.406240,1.00269704,.00033445,0.0418,50.4787,18.1485,60.0938,0,U,40147,999,4318,0,-.248E-5,0
HIMAWARI-8,2014-060A,2026-07-15T22:35:31.299072,1.00271236,.0001103,0.0175,14.6307,153.4825,245.2159,0,U,40267,999,4304,0,-.286E-5,0
IRNSS-1C,2014-061A,2026-07-15T19:57:21.752064,1.00272233,.0022069,6.5880,88.3869,5.5373,222.1370,0,U,40269,999,4297,0,-.176E-5,0
INTELSAT 30 (IS-30),2014-062A,2026-07-15T21:28:23.363040,1.00269522,.0001415,0.0195,54.0858,333.0622,133.6241,0,U,40271,999,708,0,-.161E-5,0
ARSAT 1,2014-062B,2026-07-16T01:00:14.250240,1.00271008,.0001786,0.0631,272.1851,199.7543,125.1835,0,U,40272,999,4291,0,-.27E-5,0
EUTELSAT 53A,2014-064A,2026-07-16T03:18:33.789312,1.00271937,.0001745,0.0162,343.2828,219.2320,194.0937,0,U,40277,999,4185,0,.87E-6,0
GSAT-16,2014-078A,2026-07-14T01:42:06.352704,1.00272595,.000726,0.0209,41.7088,51.1336,279.7235,0,U,40332,999,4237,0,0,0
DIRECTV 14,2014-078B,2026-07-15T12:14:38.599872,1.00267237,.000069,0.0110,40.7880,304.5925,32.3918,0,U,40333,999,4232,0,-.135E-5,0
YAMAL 401,2014-082A,2026-07-16T03:29:02.783904,1.00269760,.000042,0.0174,77.6740,32.3947,326.1262,0,U,40345,999,4220,0,0,0
